id	village	rus_village	village_altnames	lat	lon	coord_source	settlement_type	lang	aff	family	republic	region	elevation	kutans	source	page	dialect_toplevel	dialect_toplevel_cyr	dialect_nt1	dialect_nt1_cyr	dialect_nt2	dialect_nt2_cyr	dialect_nt3	dialect_nt3_cyr	village_dialect	gltl_village_dialect	gltc_village_dialect	gltl_dialect	gltc_dialect	gltc_lang	lang_col	aff_col	dialect_comment	villagelang_comment	manual
	Derbent	Дербент						Tat	Iranian	Indo-European	Daghestan			FALSE	suleymanov2017		Judeo-Tat								Derbent	Derbend	derb1244	Judeo-Tat	jude1256	jude1256	#d5daff	#fffded		In dataset.	
	Mitagi	Митаги						Tat	Iranian	Indo-European	Daghestan			FALSE	suleymanov2017		Muslim Tat		Northern						Mitagi			Muslim Tat	musl1236	musl1236	#d5daff	#fffded		In dataset as Azerbaijani-speaking; comment added.	
	Dzhalgan	Джалган						Tat	Iranian	Indo-European	Daghestan			FALSE	suleymanov2017		Muslim Tat		Southern						Dzhalgan			Muslim Tat	musl1236	musl1236	#d5daff	#fffded		In dataset as Azerbaijani-speaking; comment added.	
2114	Balaxanı	Балаханы	Balaxana	40.4608	49.9235	Open Street Map	village	Tat	Iranian	Indo-European	Azerbaijan	Bakı		FALSE	suleymanov2017		Muslim Tat		Southern						Balaxanı			Muslim Tat	musl1236	musl1236	#d5daff	#fffded			
2115	Suraxanı	Сураханы		40.4181	49.9991	Open Street Map	village	Tat	Iranian	Indo-European	Azerbaijan	Bakı		FALSE	suleymanov2017		Muslim Tat		Upper Şirvan						Suraxanı			Muslim Tat	musl1236	musl1236	#d5daff	#fffded			
2116	Gombori	Гомбори	გომბორი	41.8582	45.207	Open Street Map	village	Tat	Iranian	Indo-European	Georgia	Kakheti		FALSE	suleymanov2017		Judeo-Tat								Gombori			Judeo-Tat	jude1256	jude1256	#d5daff	#fffded		Russian name from Open Street Map	
	Oğuz	Огуз						Tat	Iranian	Indo-European	Azerbaijan			FALSE	suleymanov2017		Muslim Tat		Upper Şirvan						Oğuz			Muslim Tat	musl1236	musl1236	#d5daff	#fffded		In dataset as Udi-speaking; comment added.	
2117	Burovdal	NA		40.94023	48.37069	Open Street Map	hamlet	Tat	Iranian	Indo-European	Azerbaijan	İsmayıllı		FALSE	suleymanov2017		Muslim Tat		Upper Şirvan						Burovdal			Muslim Tat	musl1236	musl1236	#d5daff	#fffded			
2118	Müdrəsə	Мюдреса	Müdrisə	40.86034	48.31664	Open Street Map	hamlet	Tat	Iranian	Indo-European	Azerbaijan	İsmayıllı		FALSE	suleymanov2017		Muslim Tat		Upper Şirvan						Müdrəsə			Muslim Tat	musl1236	musl1236	#d5daff	#fffded	Armenian		
2119	Lahıc	Лахидж		40.84541	48.38354	Open Street Map	hamlet	Tat	Iranian	Indo-European	Azerbaijan	İsmayıllı		FALSE	suleymanov2017		Muslim Tat		Upper Şirvan						Lahıc			Muslim Tat	musl1236	musl1236	#d5daff	#fffded			
2120	Əhən	NA		40.8527	48.4166	Open Street Map	hamlet	Tat	Iranian	Indo-European	Azerbaijan	İsmayıllı		FALSE	suleymanov2017		Muslim Tat		Northern						Əhən			Muslim Tat	musl1236	musl1236	#d5daff	#fffded			
2121	Aşağı Atuc	NA		41.4467	48.5702	Open Street Map	village	Tat	Iranian	Indo-European	Azerbaijan	Quba		FALSE	suleymanov2017		Judeo-Tat								Aşağı Atuc			Judeo-Tat	jude1256	jude1256	#d5daff	#fffded			
2122	Qırmızı Qəsəbə	Красная Слобода	Fətəli xan, Qırmızıkənd, القصبة القرمزية ,قیرمیزی قصبه, קירמיזי קסבה, ყირმიზი-ყასაბა, Kırmızı Kasaba, Qafqazın Yerusəlimi	41.3736	48.5202	Open Street Map	no data	Tat	Iranian	Indo-European	Azerbaijan	Quba		FALSE	suleymanov2017		Muslim Tat		Northern						Qırmızı Qəsəbə			Muslim Tat	musl1236	musl1236	#d5daff	#fffded			
2123	Qamqam	Гам-Гам		41.2551	48.6115	Open Street Map	hamlet	Tat	Iranian	Indo-European	Azerbaijan	Quba		FALSE	suleymanov2017		Muslim Tat		Northern						Qamqam			Muslim Tat	musl1236	musl1236	#d5daff	#fffded			
2124	Qorxmazoba	NA		41.2672	48.6939	Open Street Map	hamlet	Tat	Iranian	Indo-European	Azerbaijan	Quba		FALSE	suleymanov2017		Muslim Tat		Northern						Qorxmazoba			Muslim Tat	musl1236	musl1236	#d5daff	#fffded			
2125	Rustov	Рустов		41.251	48.5774	Open Street Map	hamlet	Tat	Iranian	Indo-European	Azerbaijan	Quba		FALSE	suleymanov2017		Muslim Tat		Northern						Rustov			Muslim Tat	musl1236	musl1236	#d5daff	#fffded			
2126	Çiçi	NA		41.2159	48.6822	Open Street Map	village	Tat	Iranian	Indo-European	Azerbaijan	Quba		FALSE	suleymanov2017		Muslim Tat		Northern						Çiçi			Muslim Tat	musl1236	musl1236	#d5daff	#fffded			
2127	Zeyvə	Зейвэ		41.1968	48.7444	Open Street Map	village	Tat	Iranian	Indo-European	Azerbaijan	Şərur		FALSE	suleymanov2017		Muslim Tat		Northern						Zeyvə			Muslim Tat	musl1236	musl1236	#d5daff	#fffded			
2128	Güləzi	Гюлязи		41.1589	48.5834	Open Street Map	hamlet	Tat	Iranian	Indo-European	Azerbaijan	Quba		FALSE	suleymanov2017		Muslim Tat		Northern						Güləzi			Muslim Tat	musl1236	musl1236	#d5daff	#fffded			
2129	Afurca	Афруджа		41.1592	48.6174	Open Street Map	hamlet	Tat	Iranian	Indo-European	Azerbaijan	Quba		FALSE	suleymanov2017		Muslim Tat		Northern						Afurca			Muslim Tat	musl1236	musl1236	#d5daff	#fffded			
2130	Qonaqkənd	Конахкент		41.0729	48.6084	Open Street Map	hamlet	Tat	Iranian	Indo-European	Azerbaijan	Quba		FALSE	suleymanov2017		Muslim Tat		Northern						Qonaqkənd			Muslim Tat	musl1236	musl1236	#d5daff	#fffded			
2131	Xaltan	Халтан		40.9731	48.6848	Open Street Map	hamlet	Tat	Iranian	Indo-European	Azerbaijan	Quba		FALSE	suleymanov2017		Muslim Tat		Northern						Xaltan			Muslim Tat	musl1236	musl1236	#d5daff	#fffded			
2132	Gəndov	Гендаб		41.262504	48.9009004	https://az.wikipedia.org/wiki/Gəndov_(Şabran)	no data	Tat	Iranian	Indo-European	Azerbaijan	Şabran		FALSE	suleymanov2017		Muslim Tat		Southern						Gəndov			Muslim Tat	musl1236	musl1236	#d5daff	#fffded			
2133	Sədan	Саадан		41.066	49.0386	Open Street Map	hamlet	Tat	Iranian	Indo-European	Azerbaijan	"
Siyəzən"		FALSE	suleymanov2017		Muslim Tat		Southern						Sədan			Muslim Tat	musl1236	musl1236	#d5daff	#fffded			
2134	Fındığan	Фындаган		40.9583	49.0377	Open Street Map	hamlet	Tat	Iranian	Indo-European	Azerbaijan	Xızı		FALSE	suleymanov2017		Muslim Tat		Southern						Fındığan			Muslim Tat	musl1236	musl1236	#d5daff	#fffded			
2135	Tıxlı	Тыхлы		40.91466	49.09705	Open Street Map	hamlet	Tat	Iranian	Indo-European	Azerbaijan	Xızı		FALSE	suleymanov2017		Muslim Tat		Southern						Tıxlı			Muslim Tat	musl1236	musl1236	#d5daff	#fffded			
2136	Xızı	Хизы	Khizi, Хызы	40.9108	49.07	Open Street Map	town	Tat	Iranian	Indo-European	Azerbaijan	Xızı		FALSE	suleymanov2017		Muslim Tat		Southern						Xızı			Muslim Tat	musl1236	musl1236	#d5daff	#fffded			
2137	Giləzi	Гилази		40.8715	49.3444	Open Street Map	village	Tat	Iranian	Indo-European	Azerbaijan	Xızı		FALSE	suleymanov2017		Muslim Tat		Central						Giləzi			Muslim Tat	musl1236	musl1236	#d5daff	#fffded		Russian name from Open Street Map	
2138	Dağ Quşçu	Дагкушчу		41.0045	48.9739	Open Street Map	hamlet	Tat	Iranian	Indo-European	Azerbaijan	"
Siyəzən"		FALSE	suleymanov2017		Muslim Tat		Central						Dağ Quşçu			Muslim Tat	musl1236	musl1236	#d5daff	#fffded			
2139	Ərüsküş	Арискюш	Ərziküş	40.94493	48.91224	Open Street Map	hamlet	Tat	Iranian	Indo-European	Azerbaijan			FALSE	suleymanov2017		Muslim Tat		Northern						Ərüsküş			Muslim Tat	musl1236	musl1236	#d5daff	#fffded			
2140	Zarat-Xeybəri	NA	Zarat Xeybəri, Zarat Xeytəri, Zarat-Kheyberi	40.910833	48.553333	https://az.wikipedia.org/wiki/Zarat_Xeybəri	no data	Tat	Iranian	Indo-European	Azerbaijan	Şamaxı		FALSE	suleymanov2017		Muslim Tat		Northern						Zarat-Xeybəri			Muslim Tat	musl1236	musl1236	#d5daff	#fffded			
2141	Pirbəyli	NA		40.83772	48.73893	Open Street Map	hamlet	Tat	Iranian	Indo-European	Azerbaijan	Şamaxı		FALSE	suleymanov2017		Muslim Tat		Upper Şirvan						Pirbəyli			Muslim Tat	musl1236	musl1236	#d5daff	#fffded			
2142	Dəmirçi	NA		40.84011	48.56149	Open Street Map	hamlet	Tat	Iranian	Indo-European	Azerbaijan	Şamaxı		FALSE	suleymanov2017		Muslim Tat		Upper Şirvan						Dəmirçi			Muslim Tat	musl1236	musl1236	#d5daff	#fffded			
2143	Məlhəm	NA		40.6885	48.6316	Open Street Map	village	Tat	Iranian	Indo-European	Azerbaijan	Şamaxı		FALSE	suleymanov2017		Muslim Tat		Upper Şirvan						Məlhəm			Muslim Tat	musl1236	musl1236	#d5daff	#fffded			
